{"type":"FeatureCollection","features":[
{"type":"Feature","geometry":{"type":"Point","coordinates":[-95.7129,37.0902]},"properties":{"name":"United States","visits":8,"seasons":[1,5,9,15,18]}},
{"type":"Feature","geometry":{"type":"Point","coordinates":[138.2529,36.2048]},"properties":{"name":"Japan","visits":3,"seasons":[9,15,18]}},
{"type":"Feature","geometry":{"type":"Point","coordinates":[78.9629,20.5937]},"properties":{"name":"India","visits":2,"seasons":[1,18]}},
{"type":"Feature","geometry":{"type":"Point","coordinates":[100.9925,15.8700]},"properties":{"name":"Thailand","visits":2,"seasons":[1,9]}},
{"type":"Feature","geometry":{"type":"Point","coordinates":[104.1954,35.8617]},"properties":{"name":"China","visits":2,"seasons":[1,18]}},
{"type":"Feature","geometry":{"type":"Point","coordinates":[105.3188,61.5240]},"properties":{"name":"Russia","visits":2,"seasons":[5,9]}},
{"type":"Feature","geometry":{"type":"Point","coordinates":[-51.9253,-14.2350]},"properties":{"name":"Brazil","visits":2,"seasons":[9,18]}},
{"type":"Feature","geometry":{"type":"Point","coordinates":[2.2137,46.2276]},"properties":{"name":"France","visits":1,"seasons":[1]}},
{"type":"Feature","geometry":{"type":"Point","coordinates":[25.7482,-13.1339]},"properties":{"name":"Zambia","visits":1,"seasons":[1]}},
{"type":"Feature","geometry":{"type":"Point","coordinates":[9.5375,33.8869]},"properties":{"name":"Tunisia","visits":1,"seasons":[1]}},
{"type":"Feature","geometry":{"type":"Point","coordinates":[-55.7658,-32.5228]},"properties":{"name":"Uruguay","visits":1,"seasons":[5]}},
{"type":"Feature","geometry":{"type":"Point","coordinates":[-63.6167,-38.4161]},"properties":{"name":"Argentina","visits":1,"seasons":[5]}},
{"type":"Feature","geometry":{"type":"Point","coordinates":[30.8025,26.8206]},"properties":{"name":"Egypt","visits":1,"seasons":[5]}},
{"type":"Feature","geometry":{"type":"Point","coordinates":[34.8888,-6.3690]},"properties":{"name":"Tanzania","visits":1,"seasons":[5]}},
{"type":"Feature","geometry":{"type":"Point","coordinates":[121.7740,12.8797]},"properties":{"name":"Philippines","visits":1,"seasons":[5]}},
{"type":"Feature","geometry":{"type":"Point","coordinates":[21.8243,39.0742]},"properties":{"name":"Greece","visits":1,"seasons":[9]}},
{"type":"Feature","geometry":{"type":"Point","coordinates":[108.2772,14.0583]},"properties":{"name":"Vietnam","visits":1,"seasons":[15]}},
{"type":"Feature","geometry":{"type":"Point","coordinates":[53.8478,23.4241]},"properties":{"name":"United Arab Emirates","visits":1,"seasons":[15]}},
{"type":"Feature","geometry":{"type":"Point","coordinates":[5.2913,52.1326]},"properties":{"name":"Netherlands","visits":1,"seasons":[15]}},
{"type":"Feature","geometry":{"type":"Point","coordinates":[15.4730,49.8175]},"properties":{"name":"Czech Republic","visits":1,"seasons":[15]}},
{"type":"Feature","geometry":{"type":"Point","coordinates":[133.7751,-25.2744]},"properties":{"name":"Australia","visits":1,"seasons":[18]}},
{"type":"Feature","geometry":{"type":"Point","coordinates":[14.5501,47.5162]},"properties":{"name":"Austria","visits":1,"seasons":[18]}}
]}
